CCSDS_OMM_VERS = 2.0
CREATION_DATE  = 
ORIGINATOR     = 

OBJECT_NAME    = 2026-023H
OBJECT_ID      = 2026-023H
CENTER_NAME    = EARTH
REF_FRAME      = TEME
TIME_SYSTEM    = UTC
MEAN_ELEMENT_THEORY = SGP/SGP4

EPOCH          = 2026-02-06T19:57:24.636960
MEAN_MOTION    = 15.22318667
ECCENTRICITY   = .00215558
INCLINATION    = 96.6335
RA_OF_ASC_NODE = 116.8614
ARG_OF_PERICENTER = 226.9356
MEAN_ANOMALY   = 133.0079

EPHEMERIS_TYPE = 0
CLASSIFICATION_TYPE = U
NORAD_CAT_ID   = 67681
ELEMENT_SET_NO = 999
REV_AT_EPOCH   = 14
BSTAR          = .28069323E-3
MEAN_MOTION_DOT = .6451E-4
MEAN_MOTION_DDOT = 0

CCSDS_OMM_VERS = 2.0
CREATION_DATE  = 
ORIGINATOR     = 

OBJECT_NAME    = 2026-023J
OBJECT_ID      = 2026-023J
CENTER_NAME    = EARTH
REF_FRAME      = TEME
TIME_SYSTEM    = UTC
MEAN_ELEMENT_THEORY = SGP/SGP4

EPOCH          = 2026-02-06T19:57:21.610368
MEAN_MOTION    = 15.22391354
ECCENTRICITY   = .00211195
INCLINATION    = 96.6412
RA_OF_ASC_NODE = 116.8562
ARG_OF_PERICENTER = 228.0113
MEAN_ANOMALY   = 131.9327

EPHEMERIS_TYPE = 0
CLASSIFICATION_TYPE = U
NORAD_CAT_ID   = 67682
ELEMENT_SET_NO = 999
REV_AT_EPOCH   = 14
BSTAR          = .28055052E-3
MEAN_MOTION_DOT = .646E-4
MEAN_MOTION_DDOT = 0

CCSDS_OMM_VERS = 2.0
CREATION_DATE  = 
ORIGINATOR     = 

OBJECT_NAME    = ISS OBJECT XZ
OBJECT_ID      = 1998-067XZ
CENTER_NAME    = EARTH
REF_FRAME      = TEME
TIME_SYSTEM    = UTC
MEAN_ELEMENT_THEORY = SGP/SGP4

EPOCH          = 2026-02-08T14:19:54.057216
MEAN_MOTION    = 15.49468452
ECCENTRICITY   = .00110823
INCLINATION    = 51.6305
RA_OF_ASC_NODE = 216.1384
ARG_OF_PERICENTER = 92.8553
MEAN_ANOMALY   = 267.3704

EPHEMERIS_TYPE = 0
CLASSIFICATION_TYPE = U
NORAD_CAT_ID   = 67683
ELEMENT_SET_NO = 999
REV_AT_EPOCH   = 27
BSTAR          = .59125196E-3
MEAN_MOTION_DOT = .3287E-3
MEAN_MOTION_DDOT = 0

CCSDS_OMM_VERS = 2.0
CREATION_DATE  = 
ORIGINATOR     = 

OBJECT_NAME    = ISS OBJECT YA
OBJECT_ID      = 1998-067YA
CENTER_NAME    = EARTH
REF_FRAME      = TEME
TIME_SYSTEM    = UTC
MEAN_ELEMENT_THEORY = SGP/SGP4

EPOCH          = 2026-02-08T14:18:31.202208
MEAN_MOTION    = 15.49919384
ECCENTRICITY   = .0013033
INCLINATION    = 51.6304
RA_OF_ASC_NODE = 216.1337
ARG_OF_PERICENTER = 88.0048
MEAN_ANOMALY   = 272.2433

EPHEMERIS_TYPE = 0
CLASSIFICATION_TYPE = U
NORAD_CAT_ID   = 67684
ELEMENT_SET_NO = 999
REV_AT_EPOCH   = 27
BSTAR          = .99586353E-3
MEAN_MOTION_DOT = .56802E-3
MEAN_MOTION_DDOT = 0

CCSDS_OMM_VERS = 2.0
CREATION_DATE  = 
ORIGINATOR     = 

OBJECT_NAME    = LEOPARD
OBJECT_ID      = 1998-067YB
CENTER_NAME    = EARTH
REF_FRAME      = TEME
TIME_SYSTEM    = UTC
MEAN_ELEMENT_THEORY = SGP/SGP4

EPOCH          = 2026-02-08T14:19:34.701024
MEAN_MOTION    = 15.49560692
ECCENTRICITY   = .00130149
INCLINATION    = 51.6307
RA_OF_ASC_NODE = 216.1372
ARG_OF_PERICENTER = 88.2498
MEAN_ANOMALY   = 271.9981

EPHEMERIS_TYPE = 0
CLASSIFICATION_TYPE = U
NORAD_CAT_ID   = 67685
ELEMENT_SET_NO = 999
REV_AT_EPOCH   = 27
BSTAR          = .66149115E-3
MEAN_MOTION_DOT = .37004E-3
MEAN_MOTION_DDOT = 0

CCSDS_OMM_VERS = 2.0
CREATION_DATE  = 
ORIGINATOR     = 

OBJECT_NAME    = ISS OBJECT YC
OBJECT_ID      = 1998-067YC
CENTER_NAME    = EARTH
REF_FRAME      = TEME
TIME_SYSTEM    = UTC
MEAN_ELEMENT_THEORY = SGP/SGP4

EPOCH          = 2026-02-08T12:46:31.901952
MEAN_MOTION    = 15.49638146
ECCENTRICITY   = .00078565
INCLINATION    = 51.6313
RA_OF_ASC_NODE = 216.4571
ARG_OF_PERICENTER = 65.5031
MEAN_ANOMALY   = 294.6776

EPHEMERIS_TYPE = 0
CLASSIFICATION_TYPE = U
NORAD_CAT_ID   = 67686
ELEMENT_SET_NO = 999
REV_AT_EPOCH   = 26
BSTAR          = .73611855E-3
MEAN_MOTION_DOT = .41281E-3
MEAN_MOTION_DDOT = 0

CCSDS_OMM_VERS = 2.0
CREATION_DATE  = 
ORIGINATOR     = 

OBJECT_NAME    = CORAL
OBJECT_ID      = 1998-067YD
CENTER_NAME    = EARTH
REF_FRAME      = TEME
TIME_SYSTEM    = UTC
MEAN_ELEMENT_THEORY = SGP/SGP4

EPOCH          = 2026-02-08T14:19:42.641184
MEAN_MOTION    = 15.49526264
ECCENTRICITY   = .00079573
INCLINATION    = 51.6310
RA_OF_ASC_NODE = 216.1383
ARG_OF_PERICENTER = 67.3448
MEAN_ANOMALY   = 292.8382

EPHEMERIS_TYPE = 0
CLASSIFICATION_TYPE = U
NORAD_CAT_ID   = 67687
ELEMENT_SET_NO = 999
REV_AT_EPOCH   = 19
BSTAR          = .62045309E-3
MEAN_MOTION_DOT = .34556E-3
MEAN_MOTION_DDOT = 0

CCSDS_OMM_VERS = 2.0
CREATION_DATE  = 
ORIGINATOR     = 

OBJECT_NAME    = GXIBA-1
OBJECT_ID      = 1998-067YE
CENTER_NAME    = EARTH
REF_FRAME      = TEME
TIME_SYSTEM    = UTC
MEAN_ELEMENT_THEORY = SGP/SGP4

EPOCH          = 2026-02-08T14:19:25.459680
MEAN_MOTION    = 15.49615844
ECCENTRICITY   = .00078236
INCLINATION    = 51.6312
RA_OF_ASC_NODE = 216.1363
ARG_OF_PERICENTER = 66.6258
MEAN_ANOMALY   = 293.5553

EPHEMERIS_TYPE = 0
CLASSIFICATION_TYPE = U
NORAD_CAT_ID   = 67688
ELEMENT_SET_NO = 999
REV_AT_EPOCH   = 19
BSTAR          = .70416948E-3
MEAN_MOTION_DOT = .39429E-3
MEAN_MOTION_DDOT = 0

CCSDS_OMM_VERS = 2.0
CREATION_DATE  = 
ORIGINATOR     = 

OBJECT_NAME    = PRC TEST SPACECRAFT 4
OBJECT_ID      = 2026-024A
CENTER_NAME    = EARTH
REF_FRAME      = TEME
TIME_SYSTEM    = UTC
MEAN_ELEMENT_THEORY = SGP/SGP4

EPOCH          = 2026-02-08T15:29:28.963104
MEAN_MOTION    = 15.32684951
ECCENTRICITY   = .01796245
INCLINATION    = 49.9899
RA_OF_ASC_NODE = 160.1377
ARG_OF_PERICENTER = 154.5769
MEAN_ANOMALY   = 206.4162

EPHEMERIS_TYPE = 0
CLASSIFICATION_TYPE = U
NORAD_CAT_ID   = 67689
ELEMENT_SET_NO = 999
REV_AT_EPOCH   = 23
BSTAR          = .18096191E-3
MEAN_MOTION_DOT = .9277E-4
MEAN_MOTION_DDOT = 0

CCSDS_OMM_VERS = 2.0
CREATION_DATE  = 
ORIGINATOR     = 

OBJECT_NAME    = CZ-2F R/B
OBJECT_ID      = 2026-024B
CENTER_NAME    = EARTH
REF_FRAME      = TEME
TIME_SYSTEM    = UTC
MEAN_ELEMENT_THEORY = SGP/SGP4

EPOCH          = 2026-02-08T15:29:03.088032
MEAN_MOTION    = 15.33016351
ECCENTRICITY   = .0178096
INCLINATION    = 49.9868
RA_OF_ASC_NODE = 160.1378
ARG_OF_PERICENTER = 154.4940
MEAN_ANOMALY   = 206.4941

EPHEMERIS_TYPE = 0
CLASSIFICATION_TYPE = U
NORAD_CAT_ID   = 67690
ELEMENT_SET_NO = 999
REV_AT_EPOCH   = 23
BSTAR          = .19429E-3
MEAN_MOTION_DOT = .10042E-3
MEAN_MOTION_DDOT = 0

CCSDS_OMM_VERS = 2.0
CREATION_DATE  = 
ORIGINATOR     = 

OBJECT_NAME    = CZ-2F DEB
OBJECT_ID      = 2026-024C
CENTER_NAME    = EARTH
REF_FRAME      = TEME
TIME_SYSTEM    = UTC
MEAN_ELEMENT_THEORY = SGP/SGP4

EPOCH          = 2026-02-07T09:44:59.193024
MEAN_MOTION    = 15.45551762
ECCENTRICITY   = .01135604
INCLINATION    = 49.9467
RA_OF_ASC_NODE = 166.3853
ARG_OF_PERICENTER = 147.5975
MEAN_ANOMALY   = 213.2028

EPHEMERIS_TYPE = 0
CLASSIFICATION_TYPE = U
NORAD_CAT_ID   = 67691
ELEMENT_SET_NO = 999
REV_AT_EPOCH   = 4
BSTAR          = .22491436E-3
MEAN_MOTION_DOT = .13633E-3
MEAN_MOTION_DDOT = 0

CCSDS_OMM_VERS = 2.0
CREATION_DATE  = 
ORIGINATOR     = 

OBJECT_NAME    = CZ-2F DEB
OBJECT_ID      = 2026-024D
CENTER_NAME    = EARTH
REF_FRAME      = TEME
TIME_SYSTEM    = UTC
MEAN_ELEMENT_THEORY = SGP/SGP4

EPOCH          = 2026-02-07T08:11:28.205952
MEAN_MOTION    = 15.42131272
ECCENTRICITY   = .01349549
INCLINATION    = 49.9172
RA_OF_ASC_NODE = 166.7551
ARG_OF_PERICENTER = 145.7017
MEAN_ANOMALY   = 215.2750

EPHEMERIS_TYPE = 0
CLASSIFICATION_TYPE = U
NORAD_CAT_ID   = 67692
ELEMENT_SET_NO = 999
REV_AT_EPOCH   = 3
BSTAR          = .22597737E-3
MEAN_MOTION_DOT = .13282E-3
MEAN_MOTION_DDOT = 0

